YAOGAN-3                
1 32289U 07055A   26167.18766700  .00002018  00000+0  21094-3 0  9997
2 32289  97.8154 197.0753 0002005  83.3836 276.7610 14.90781167  5727
YAOGAN-4                
1 33446U 08061A   26167.08769116  .00000832  00000+0  10834-3 0  9996
2 33446  97.9308 100.6060 0015742  75.7139 284.5821 14.83198263945500
YAOGAN-7                
1 36110U 09069A   26167.14099579  .00000418  00000+0  64953-4 0  9994
2 36110  98.0073  53.0144 0025625  44.9471 315.3808 14.78008967889470
ZIYUAN 1-02C (ZY 1-02C) 
1 38038U 11079A   26167.17560666  .00000333  00000+0  12378-3 0  9991
2 38038  98.4078 234.5050 0005539 320.3023 124.6314 14.38214057759067
YAOGAN-22               
1 40275U 14063A   26167.12097339 -.00000053  00000+0 -17597-4 0  9990
2 40275 100.7722 318.3764 0006320 187.6940 172.4075 13.15531105559670
YAOGAN-24               
1 40310U 14072A   26167.20094045  .00000299  00000+0  50818-4 0  9993
2 40310  98.1486 304.5301 0012533 267.0001  92.9774 14.76220699623579
YAOGAN-26               
1 40362U 14088A   26167.16351742  .00019273  00000+0  37868-3 0  9993
2 40362  97.0634 167.3968 0006086  68.8925 291.2976 15.47315794637541
YAOGAN-27               
1 40878U 15040A   26167.19233191 -.00000227  00000+0 -48591-3 0  9990
2 40878 100.1143 153.6181 0007647 212.9716 147.0921 13.16068439517532
YAOGAN-28               
1 41026U 15064A   26167.20904347  .00005548  00000+0  20920-3 0  9997
2 41026  97.3077 305.4901 0010521 186.6148 173.4954 15.27409740590537
YAOGAN-29               
1 41038U 15069A   26167.23325961  .00000306  00000+0  44204-4 0  9996
2 41038  98.0023 195.8643 0002627  56.0452 304.1011 14.83083889570481
